,name,country,subcountry,geonameid,lat,lng
12109,Shingu,Japan,Wakayama,1847947,33.7241048,135.9924107
12110,Atsugi,Japan,Kanagawa,1847963,35.4430818,139.3624889
12111,Akashi,Japan,Hyogo,1847966,34.6431066,134.9971787
12112,Zushi,Japan,Kanagawa,1847968,35.2956059,139.5804228
12113,Zama,Japan,Kanagawa,1848004,35.4885872,139.4076731
12114,Yuza,Japan,Yamagata,1848016,39.0146158,139.9073521
12115,Gero,Japan,Gifu,1848055,35.8058817,137.2441002
12116,Yukuhashi,Japan,Fukuoka,1848087,33.7287727,130.982967
12117,Yuki,Japan,Ibaraki,1848096,36.3054165,139.8766414
12118,Yugawara,Japan,Kanagawa,1848113,35.1479639,139.1083167
12119,Yoshikawa,Japan,Saitama,1848188,35.8911519,139.841375
12120,Yoshii,Japan,Gunma,1848194,36.2559553,138.9845412
12121,Yoshida-kasugacho,Japan,Niigata,1848210,37.6837922,138.8825459
12122,Yorii,Japan,Saitama,1848243,36.1183484,139.1930115
12123,Yono,Japan,Saitama,1848254,35.898488,139.630904
12124,Yonago,Japan,Tottori,1848277,35.4280717,133.3309447
12125,Yokosuka,Japan,Kanagawa,1848313,35.2813412,139.6722005
12126,Yokohama,Japan,Kanagawa,1848354,35.4437078,139.6380256
12127,Yokkaichi,Japan,Mie,1848373,34.9651567,136.6244847
12128,Youkaichi,Japan,Shiga,1848382,35.11299169999999,136.1996682
12129,Yawata,Japan,Kyoto,1848439,34.8755551,135.7076209
12130,Yatsushiro,Japan,Kumamoto,1848445,32.5083871,130.6020961
12131,Yatsuomachi-higashikumisaka,Japan,Toyama,1848447,36.567208,137.1294217
12132,Yasugicho,Japan,Shimane,1848482,35.3561081,133.2779384
12133,Yashiro,Japan,Hyogo,1848498,34.9174953,134.968804
12134,Yashio-shi,Japan,Saitama,1848499,35.822536,139.8391748
12135,Yao,Japan,osaka,1848522,34.6268635,135.6009775
12136,Yanai,Japan,Yamaguchi,1848550,33.9638333,132.1015969
12137,Yanagawa,Japan,Fukuoka,1848573,33.1630889,130.4057531
12139,Yamaguchi,Japan,Yamaguchi,1848689,34.178496,131.4737269
12140,Yamaga,Japan,Kumamoto,1848705,33.0175778,130.6913646
12141,Yaizu,Japan,Shizuoka,1848774,34.8669202,138.3231893
12142,Yaita,Japan,Tochigi,1848776,36.8066862,139.924054
12143,Wakimachi,Japan,Tokushima,1848933,34.0662852,134.1673859
12144,Utsunomiya,Japan,Tochigi,1849053,36.5551124,139.8828072
12145,Uto,Japan,Kumamoto,1849069,32.6879986,130.6597212
12146,Usuki,Japan,Oita,1849094,33.1260115,131.8051243
12147,Ushibuka,Japan,Kumamoto,1849154,32.215706,130.02977
12148,Ureshinomachi-shimojuku,Japan,Saga,1849183,33.1280839,130.0601144
12149,Urayasu,Japan,Tokyo,1849186,35.653153,139.9019174
12150,Uozu,Japan,Toyama,1849237,36.8273674,137.4092147
12151,Umi,Japan,Fukuoka,1849299,33.5677786,130.5111124
12152,Ujiie,Japan,Tochigi,1849367,36.6839265,139.9649414
12153,Uji,Japan,Kyoto,1849372,34.8844606,135.7998544
12154,Uenohara,Japan,Yamanashi,1849407,35.6302591,139.1085986
12155,Ueno-ebisumachi,Japan,Mie,1849414,34.7611712,136.1329882
12156,Ueki,Japan,Kumamoto,1849424,32.2795526,130.9717334
12157,Ueda,Japan,Nagano,1849429,36.4019115,138.2488888
12158,Ube,Japan,Yamaguchi,1849498,33.9515087,131.2467858
12159,Tsuyama,Japan,Okayama,1849519,35.0691155,134.0045428
12160,Tsushima,Japan,Aichi,1849539,35.1770291,136.7412138
12161,Tsurusaki,Japan,Oita,1849561,33.2437603,131.6853045
12162,Tsuruoka,Japan,Yamagata,1849563,38.7271972,139.8267307
12163,Tsurugi-asahimachi,Japan,Ishikawa,1849584,36.4474231,136.6332141
12164,Tsuruga,Japan,Fukui,1849592,35.6452443,136.0554408
12165,Tsuma,Japan,Miyazaki,1849647,32.1030654,131.3999389
12166,Tsukumiura,Japan,Oita,1849661,33.0721832,131.8612771
12167,Tsukawaki,Japan,Oita,1849706,33.2772549,131.1517223
12168,Tsubata,Japan,Ishikawa,1849782,36.6686933,136.7284416
12169,Tsubame,Japan,Niigata,1849788,37.6731518,138.8822296
12170,Tsu,Japan,Mie,1849796,34.718596,136.5056975
12171,Toyota,Japan,Aichi,1849814,35.0823947,137.1562491
12172,Toyoshina,Japan,Nagano,1849817,36.3006568,137.9047429
12173,Toyooka,Japan,Hyogo,1849831,35.5445754,134.8201814
12174,Toyonaka,Japan,osaka,1849837,34.7812658,135.4697387
12175,Toyokawa,Japan,Aichi,1849845,34.8268506,137.3755423
12176,Toyohashi,Japan,Aichi,1849846,34.7691995,137.3914662
12177,Toyohama,Japan,Aichi,1849850,34.7099256,136.9341196
12178,Toyama,Japan,Toyama,1849876,36.6959518,137.2136768
12179,Tottori,Japan,Tottori,1849892,35.5011326,134.2350914
12180,Tosu,Japan,Saga,1849904,33.3777547,130.506258
12181,Tonosho,Japan,Kagawa,1850004,34.48602169999999,134.1858069
12182,Tondabayashicho,Japan,osaka,1850034,34.49952740000001,135.5971277
12183,Tomioka,Japan,Gunma,1850091,36.2598406,138.8895656
12184,Tomigusuku,Japan,Okinawa,1850108,26.1610061,127.668944
12185,Tokyo,Japan,Tokyo,1850147,35.7090259,139.7319925
12186,Tokuyama,Japan,Yamaguchi,1850152,34.065682,131.8140153
12187,Tokushima,Japan,Tokushima,1850158,34.0702703,134.5548438
12188,Tokorozawa,Japan,Saitama,1850181,35.7996715,139.4686101
12189,Tokoname,Japan,Aichi,1850185,34.8867002,136.8323973
12190,Toki,Japan,Gifu,1850207,35.3525002,137.183202
12191,Tokamachi,Japan,Niigata,1850217,37.1275822,138.7557075
12192,Togitsu,Japan,Nagasaki,1850269,32.828888,129.8485357
12193,Tochio-honcho,Japan,Niigata,1850307,37.4769029,138.9946831
12194,Tochigi,Japan,Tochigi,1850311,36.3823804,139.734081
12195,Toba,Japan,Mie,1850345,34.481435,136.8433615
12196,Tenri,Japan,Nara,1850396,34.596647,135.8373313
12197,Tenno,Japan,Akita,1850405,39.8982094,139.961356
12198,Tawaramoto,Japan,Nara,1850472,34.5566006,135.7948756
12199,Tatsuno,Japan,Nagano,1850498,35.9825125,137.9874836
12200,Tatsunocho-tominaga,Japan,Hyogo,1850499,34.8617787,134.5497064
12201,Tateyama,Japan,Chiba,1850523,34.9965057,139.8699653
12202,Tatebayashi,Japan,Gunma,1850559,36.2448485,139.5419678
12203,Tarumizu,Japan,Kagoshima,1850589,31.4927344,130.7009143
12204,Tarui,Japan,Gifu,1850600,35.3702535,136.5271017
12205,Tanushimarumachi-toyoki,Japan,Fukuoka,1850627,33.3437146,130.6838866
12206,Tanuma,Japan,Tochigi,1850630,36.3683017,139.5787551
12207,Nishi-Tokyo-shi,Japan,Tokyo,1850692,35.7254963,139.5381564
12208,Tanashicho,Japan,Tokyo,1850693,35.7285765,139.5388561
12209,Tanabe,Japan,Kyoto,1850707,34.8148172,135.7683696
12210,Tanabe,Japan,Wakayama,1850708,33.7280335,135.377768
12211,Tamano,Japan,Okayama,1850742,34.4919434,133.945987
12212,Tamana,Japan,Kumamoto,1850745,32.9352202,130.5628395
12213,Tamamura,Japan,Gunma,1850746,36.3044326,139.1149133
12214,Taketoyo,Japan,Aichi,1850818,34.8511342,136.9148034
12215,Takeocho-takeo,Japan,Saga,1850834,33.1937487,130.0191505
12216,Takehara,Japan,Hiroshima,1850860,34.3417943,132.9070883
12217,Takefu,Japan,Fukui,1850872,35.903455,136.170902
12218,Takedamachi,Japan,Oita,1850878,32.9737199,131.3980022
12219,Takayama,Japan,Gifu,1850892,36.1461236,137.2521729
12220,Takatsuki,Japan,osaka,1850910,34.8461585,135.6172716
12221,Takasaki,Japan,Gunma,1851002,36.3219088,139.0032936
12222,Takarazuka,Japan,Hyogo,1851012,34.7997673,135.3600729
12223,Takaoka,Japan,Toyama,1851032,36.7540964,137.0257282
12224,Takanabe,Japan,Miyazaki,1851068,32.1279986,131.5033547
12225,Takamatsu,Japan,Kagawa,1851100,34.3427879,134.046574
12226,Takaishi,Japan,osaka,1851125,34.5207172,135.4424524
12227,Takahashi,Japan,Okayama,1851137,34.7910227,133.6167325
12228,Takahama,Japan,Aichi,1851155,34.9275878,136.9872687
12229,Bungo-Takada-shi,Japan,Oita,1851170,33.5561601,131.4470905
12230,Tajimi,Japan,Gifu,1851193,35.3328,137.1320765
12231,Tahara,Japan,Aichi,1851259,34.6688056,137.2642033
12232,Tagawa,Japan,Fukuoka,1851273,33.6389822,130.8062975
12233,Tadotsu,Japan,Kagawa,1851282,34.2724879,133.7536048
12234,Suzuka,Japan,Mie,1851348,34.8818796,136.5842092
12235,Suzaka,Japan,Nagano,1851357,36.6510973,138.3071917
12236,Suwa,Japan,Nagano,1851368,36.0391417,138.1141816
12237,Susaki,Japan,Kochi,1851390,33.400745,133.282953
12238,Sumoto,Japan,Hyogo,1851426,34.3428705,134.8953669
12239,Sukumo,Japan,Kochi,1851462,32.9390085,132.7262855
12240,Suita,Japan,osaka,1851483,34.7594526,135.51686
12241,Suibara,Japan,Niigata,1851494,37.8457328,139.2342041
12242,Sugito,Japan,Saitama,1851504,36.0257648,139.7367092
12243,Sueyoshicho-ninokata,Japan,Kagoshima,1851542,31.6546654,131.0216903
12244,Soka,Japan,Saitama,1851604,35.8253547,139.8054022
12245,Soja,Japan,Okayama,1851606,34.6728073,133.7465284
12246,Sobue,Japan,Aichi,1851622,35.2553731,136.7193746
12247,Shobu,Japan,Saitama,1851711,35.8543392,139.7957939
12248,Shobara,Japan,Hiroshima,1851713,34.8577316,133.0172775
12249,Shizuoka,Japan,Shizuoka,1851717,34.975562,138.3827596
12250,Shirone,Japan,Niigata,1851813,37.7609405,139.0140781
12251,Shiraoka,Japan,Saitama,1851883,36.0190258,139.6769253
12252,Shirahamacho-usazakiminami,Japan,Hyogo,1851935,34.7757093,134.7206721
12253,Shiozawa,Japan,Niigata,1851952,37.0398352,138.8499933
12254,Shiojiri,Japan,Nagano,1852003,36.1149723,137.953449
12255,Shinshiro,Japan,Aichi,1852046,34.8992291,137.4984758
12256,Shinichi,Japan,Hiroshima,1852102,35.034949,132.9116524
12257,Shingu,Japan,Fukuoka,1852109,33.7152952,130.4465663
12258,Shimonoseki,Japan,Yamaguchi,1852225,33.9578307,130.941459
12259,Shimodate,Japan,Ibaraki,1852347,36.304147,139.978334
12260,Shimoda,Japan,Shizuoka,1852357,34.6795334,138.945316
12261,Minato,Japan,Wakayama,1852383,34.2356658,135.1506958
12262,Nishishinminato,Japan,Toyama,1852385,36.7806554,137.0779342
12263,Shimada,Japan,Shizuoka,1852472,34.8363636,138.1759966
12264,Shimabara,Japan,Nagasaki,1852479,32.7881027,130.370286
12265,Shiki,Japan,Saitama,1852502,35.8367501,139.5803194
12266,Shido,Japan,Kagawa,1852561,34.3230157,134.1743581
12267,Shibushi,Japan,Kagoshima,1852588,31.495442,131.045336
12268,Shibukawa,Japan,Gunma,1852595,36.4894706,139.0004482
12269,Shibata,Japan,Niigata,1852607,37.9480749,139.3272925
12270,Seto,Japan,Aichi,1852663,35.22395789999999,137.0840296
12271,Setakamachi-takayanagi,Japan,Fukuoka,1852673,33.1492088,130.4629741
12272,Satsumasendai,Japan,Kagoshima,1852736,31.8135171,130.3042445
12273,Satte,Japan,Saitama,1852849,36.0780722,139.7258607
12274,Sasebo,Japan,Nagasaki,1852899,33.1799153,129.7151101
12275,Sasayama,Japan,Hyogo,1852901,35.0756607,135.2190508
12276,Sasaguri,Japan,Fukuoka,1852915,33.6239476,130.5262564
12277,Sano,Japan,Tochigi,1852964,36.3143491,139.578341
12278,Sanjo,Japan,Niigata,1852984,37.6367679,138.961689
12279,Sandacho,Japan,Hyogo,1853008,34.8899959,135.2254534
12280,Sakurai,Japan,Nara,1853066,34.5187142,135.8432157
12281,Saku,Japan,Nagano,1853081,36.2488683,138.4768306
12282,Sakata,Japan,Yamagata,1853140,38.9147858,139.8365708
12284,Sakaidecho,Japan,Kagawa,1853190,34.3163193,133.8605102
12285,Sakai-nakajima,Japan,Gunma,1853192,36.2642535,139.2506582
12286,Sakai,Japan,Ibaraki,1853193,36.1084264,139.7949611
12287,Sakai,Japan,osaka,1853195,34.573262,135.482998
12288,Sakado,Japan,Saitama,1853209,35.9571698,139.4029055
12289,Saiki,Japan,Oita,1853237,32.959806,131.9000575
12290,Sagara,Japan,Shizuoka,1853280,34.6850948,138.1992472
12291,Saga,Japan,Saga,1853303,33.263482,130.3008576
12292,Sabae,Japan,Fukui,1853338,35.9565532,136.1844742
12293,Ryuo,Japan,Yamanashi,1853354,35.6648783,138.5074747
12294,Ryotsu-minato,Japan,Niigata,1853371,38.0775948,138.439631
12295,Ozu,Japan,Kumamoto,1853433,32.8785037,130.8683118
12296,Oyama,Japan,Tochigi,1853483,36.3146714,139.800131
12297,Oyama,Japan,Shizuoka,1853486,35.3601074,138.9872985
12298,Owase,Japan,Mie,1853514,34.0707989,136.1909953
12299,Otsuki,Japan,Yamanashi,1853564,35.6104852,138.9400276
12300,Otsu,Japan,Shiga,1853574,35.0178929,135.8546074
12301,Otake,Japan,Yamaguchi,1853662,34.3595614,131.2563381
12302,Ota,Japan,Gunma,1853677,36.2911223,139.3754708
12303,Osaka,Japan,osaka,1853909,34.6937378,135.5021651
12304,Onomichi,Japan,Hiroshima,1853992,34.4088756,133.2048886
12305,Onoda,Japan,Yamaguchi,1854018,33.9461435,131.1715879
12306,Ono,Japan,Fukui,1854022,35.9798141,136.4875638
12307,Ono,Japan,Hyogo,1854026,34.853193,134.9313762
12308,Ono-hara,Japan,Hiroshima,1854028,34.2887194,132.2692815
12309,Omuta,Japan,Fukuoka,1854083,33.0302622,130.4459852
12310,Omura,Japan,Nagasaki,1854093,32.9000901,129.9581416
12311,Ome,Japan,Tokyo,1854162,35.7879958,139.2758298
12312,Omamacho-omama,Japan,Gunma,1854177,36.4310894,139.273915
12313,Omachi,Japan,Nagano,1854186,36.5030179,137.8510941
12314,Okuchi-shinohara,Japan,Kagoshima,1854246,32.0623694,130.6201012
12315,Okegawa,Japan,Saitama,1854371,36.0057789,139.5425311
12316,Okazaki,Japan,Aichi,1854376,34.9543786,137.1743293
12317,Okayama,Japan,Okayama,1854383,34.6551456,133.9195019
12318,Okaya,Japan,Nagano,1854384,36.0670115,138.0493255
12320,Ojiya,Japan,Niigata,1854444,37.3143385,138.7950996
12321,Oita,Japan,Oita,1854487,33.2395578,131.609272
12322,Oiso,Japan,Kanagawa,1854492,35.3068498,139.3113138
12323,Oi,Japan,Saitama,1854530,35.8468782,139.5161655
12324,Ogori-shimogo,Japan,Yamaguchi,1854629,34.09756580000001,131.3971294
12325,Ogawa,Japan,Saitama,1854665,36.0566972,139.2618452
12326,Ogaki,Japan,Gifu,1854703,35.3593842,136.6127502
12327,Odawara,Japan,Kanagawa,1854747,35.2645639,139.1521538
12328,Odacho-oda,Japan,Shimane,1854774,35.1921063,132.4992932
12329,Obu,Japan,Aichi,1854803,35.01165659999999,136.9638347
12330,Obita,Japan,Nagasaki,1854807,32.866393,129.9809691
12331,Obama,Japan,Fukui,1854849,35.4955931,135.7466439
12332,Nyuzen,Japan,Toyama,1854868,36.9335108,137.5020445
12333,Numazu,Japan,Shizuoka,1854902,35.0955842,138.8634925
12334,Numata,Japan,Gunma,1854905,36.6460769,139.0441608
12335,Nonoichi,Japan,Ishikawa,1854979,36.51970439999999,136.6099711
12336,Nogata,Japan,Fukuoka,1855066,33.7441839,130.7296326
12337,Noda,Japan,Chiba,1855078,35.9551921,139.8747636
12338,Nobeoka,Japan,Miyazaki,1855095,32.5822723,131.6650094
12339,Nishiwaki,Japan,Hyogo,1855134,34.9933552,134.9691886
12340,Nishio,Japan,Aichi,1855189,34.8619367,137.0618498
12341,Nishinoomote,Japan,Kagoshima,1855203,30.7324118,130.9968353
12342,Nishinomiya-hama,Japan,Hyogo,1855207,34.7173896,135.3372233
12343,Nirasaki,Japan,Yamanashi,1855363,35.708897,138.4461267
12344,Ninomiya,Japan,Kanagawa,1855380,35.2994912,139.2554024
12345,Nikko,Japan,Tochigi,1855395,36.7199026,139.6982161
12346,Niitsu-honcho,Japan,Niigata,1855410,37.7977942,139.1253637
12347,Niimi,Japan,Okayama,1855416,34.9770301,133.4703064
12348,Niihama,Japan,Ehime,1855425,33.96028950000001,133.2833512
12349,Niigata,Japan,Niigata,1855431,37.9161924,139.0364126
12350,Nichinan,Japan,Miyazaki,1855476,31.6013958,131.378339
12351,Naze,Japan,Kagoshima,1855540,28.3961785,129.4665177
12352,Narutocho-mitsuishi,Japan,Tokushima,1855580,34.1725623,134.6087858
12353,Nara-shi,Japan,Nara,1855612,34.6850869,135.8050002
12354,Nanao,Japan,Ishikawa,1855670,37.043102,136.9675177
12355,Namerikawa,Japan,Toyama,1855694,36.7643778,137.3411906
12356,Nakatsugawa,Japan,Gifu,1855753,35.4875479,137.5005092
12357,Nakatsu,Japan,Fukuoka,1855757,33.5925017,130.4063956
12358,Nakanojomachi,Japan,Gunma,1855852,36.5898925,138.8409863
12359,Nakano,Japan,Nagano,1855863,36.742044,138.3694503
12360,Nakamura,Japan,Kochi,1855891,33.0043215,132.9162145
12361,Nakama,Japan,Fukuoka,1855907,33.81664980000001,130.7090769
12362,Naha,Japan,Okinawa,1856035,26.2123124,127.6791568
12363,Nagoya,Japan,Aichi,1856057,35.1814464,136.906398
12364,Nago,Japan,Okinawa,1856068,26.5915465,127.9773162
12365,Nagasaki,Japan,Nagasaki,1856177,32.7502856,129.877667
12366,Nagareyama,Japan,Chiba,1856184,35.8563097,139.9026602
12367,Nagaoka,Japan,Niigata,1856199,37.4462652,138.8512772
12368,Nagano,Japan,Nagano,1856215,36.6485829,138.1947709
12369,Nagahama,Japan,Shiga,1856243,35.3808146,136.2787218
12370,Nabari,Japan,Mie,1856293,34.6276593,136.1082959
12371,Musashino,Japan,Tokyo,1856367,35.7177841,139.56626
12372,Muroto-misakicho,Japan,Kochi,1856392,33.2900093,134.1520509
12373,Muramatsu,Japan,Niigata,1856426,37.6924415,139.1773924
12374,Murakami,Japan,Niigata,1856434,38.22397900000001,139.4800209
12375,Muko,Japan,Kyoto,1856456,34.9487356,135.698288
12376,Muikamachi,Japan,Niigata,1856476,37.0625556,138.8786313
12377,Morohongo,Japan,Saitama,1856560,35.9411947,139.3061655
12378,Moriyama,Japan,Shiga,1856569,35.0589401,135.9944042
12379,Moriguchi,Japan,osaka,1856584,34.7357872,135.5617511
12380,Mori,Japan,Shizuoka,1856586,34.8356273,137.9270187
12381,Mizunami,Japan,Gifu,1856667,35.3617124,137.2545866
12382,Miyoshi,Japan,Hiroshima,1856698,34.8055738,132.851674
12383,Miyazu,Japan,Kyoto,1856703,35.5355767,135.1955665
12384,Miyazaki,Japan,Miyazaki,1856717,31.9076736,131.4202411
12385,Miyakonojo,Japan,Miyazaki,1856775,31.7195903,131.0616214
12386,Miyata,Japan,Fukuoka,1856828,33.7255285,130.6667408
12387,Mitsuke,Japan,Niigata,1856878,37.5316041,138.9128246
12388,Mitsukaido,Japan,Ibaraki,1856881,36.0234937,139.993617
12389,Mitake,Japan,Gifu,1856938,35.43424540000001,137.1307903
12390,Mitaka-shi,Japan,Tokyo,1856942,35.683513,139.5595842
12391,Mishima,Japan,Shizuoka,1856977,35.11840249999999,138.9185126
12392,Mino,Japan,osaka,1857046,34.8269301,135.4704626
12393,Mino,Japan,Gifu,1857062,35.5447697,136.9075396
12394,Minamirinkan,Japan,Kanagawa,1857144,35.4958549,139.4469168
12395,Minamata,Japan,Kumamoto,1857208,32.2145158,130.4073698
12396,Minakuchicho-matoba,Japan,Shiga,1857209,34.9681279,136.1629617
12397,Mikuni,Japan,Fukui,1857260,36.216946,136.149864
12398,Miki,Japan,Hyogo,1857276,34.7969439,134.9901968
12399,Mihara,Japan,Hiroshima,1857334,34.3974332,133.0786576
12400,Mibu,Japan,Tochigi,1857379,36.4270577,139.8039321
12401,Menuma,Japan,Saitama,1857403,36.2251676,139.3781659
12402,Matsuto,Japan,Ishikawa,1857470,36.264973,137.97233
12403,Matsumoto,Japan,Nagano,1857519,36.2380381,137.9720341
12404,Matsue,Japan,Shimane,1857550,35.4680595,133.048375
12405,Matsudo,Japan,Chiba,1857553,35.7876491,139.903093
12406,Matsubase,Japan,Kumamoto,1857560,32.6521604,130.675613
12407,Matsubara,Japan,osaka,1857568,34.5778791,135.5518501
12408,Masuda,Japan,Shimane,1857594,34.6748172,131.842862
12409,Maruoka,Japan,Fukui,1857651,36.1523615,136.2721458
12410,Kamimaruko,Japan,Nagano,1857659,36.3245823,138.271632
12411,Marugame,Japan,Kagawa,1857665,34.2895062,133.7977056
12412,Makurazaki,Japan,Kagoshima,1857712,31.2729002,130.2969045
12413,Maki,Japan,Niigata,1857751,37.7552394,138.8863233
12414,Maizuru,Japan,Kyoto,1857766,35.4747971,135.3859918
12415,Maebashi,Japan,Gunma,1857843,36.3894816,139.0634281
12416,Maebaru-chuo,Japan,Fukuoka,1857844,33.5598341,130.1999739
12417,Machida,Japan,Tokyo,1857871,35.546631,139.4386186
12418,Kyoto,Japan,Kyoto,1857910,35.0116363,135.7680294
12419,Kushikino,Japan,Kagoshima,1858041,31.7145528,130.2719288
12420,Kusatsu,Japan,Shiga,1858067,35.01313409999999,135.959936
12421,Kurume,Japan,Fukuoka,1858088,33.3192865,130.5083735
12422,Kuroda,Japan,Aichi,1858249,34.8650669,137.5054401
12423,Kurihashi,Japan,Saitama,1858283,36.1219748,139.707963
12424,Kure,Japan,Hiroshima,1858296,34.2486458,132.5654407
12425,Kurayoshi,Japan,Tottori,1858301,35.4301794,133.825561
12426,Kurashiki,Japan,Okayama,1858311,34.5850134,133.7720841
12427,Kumamoto,Japan,Kumamoto,1858421,32.8031004,130.7078911
12428,Kumagaya,Japan,Saitama,1858428,36.1473097,139.3886446
12429,Kukichuo,Japan,Saitama,1858445,35.8840955,139.6261023
12430,Kudamatsu,Japan,Yamaguchi,1858498,34.0150299,131.8703421
12431,Kozakai-cho,Japan,Aichi,1858591,34.799583,137.3616256
12432,Koshigaya,Japan,Saitama,1858729,35.8910841,139.7909377
12433,Kosai-shi,Japan,Shizuoka,1858756,34.71846550000001,137.5316257
12434,Konosu,Japan,Saitama,1858794,36.0657584,139.5221694
12435,Konan,Japan,Aichi,1858836,35.3320112,136.8706172
12436,Komoro,Japan,Nagano,1858858,36.3274191,138.4258801
12437,Komono,Japan,Mie,1858866,35.02006780000001,136.5073436
12438,Komatsushimacho,Japan,Tokushima,1858902,34.0047114,134.5906739
12439,Komatsu,Japan,Ishikawa,1858910,36.4083514,136.445571
12440,Komaki,Japan,Aichi,1858926,35.2903104,136.9109515
12441,Kokubunji,Japan,Tokyo,1858964,35.7103347,139.4631912
12442,Kokubu-matsuki,Japan,Kagoshima,1858972,31.7337799,130.7533097
12443,Koga,Japan,Ibaraki,1859093,36.1846451,139.7025248
12444,Koga,Japan,Fukuoka,1859094,33.7287865,130.4699872
12445,Kofu,Japan,Yamanashi,1859100,35.66228,138.5682015
12446,Kodamacho-kodamaminami,Japan,Saitama,1859113,36.1812392,139.1311901
12447,Kochi,Japan,Kochi,1859146,9.9312328,76.26730409999999
12448,Kobe,Japan,Hyogo,1859171,34.690083,135.1955112
12449,Kobayashi,Japan,Miyazaki,1859175,31.9967312,130.9725875
12450,Kitsuki,Japan,Oita,1859234,33.417026,131.6160889
12451,Kitakyushu,Japan,Fukuoka,1859307,33.8834093,130.8752161
12452,Kitakata,Japan,Fukushima,1859319,37.651355,139.8746088
12454,Kishiwada,Japan,osaka,1859383,34.4606341,135.3708291
12455,Kisarazu,Japan,Chiba,1859393,35.3812265,139.92486
12456,Kisai,Japan,Saitama,1859400,36.1008689,139.5772452
12457,Kiryu,Japan,Gunma,1859405,36.4054907,139.3306875
12458,Kikuchi,Japan,Kumamoto,1859492,32.9794831,130.8133329
12459,Kazo,Japan,Saitama,1859586,36.1314381,139.6017194
12460,Kawasaki,Japan,Kanagawa,1859642,35.52981980000001,139.7024039
12461,Kawasaki,Japan,Fukuoka,1859647,33.5999397,130.8149368
12462,Kawanishi,Japan,Hyogo,1859675,34.8301347,135.417278
12463,Kawaguchi,Japan,Saitama,1859730,35.8077379,139.7241712
12464,Kawagoe,Japan,Saitama,1859740,35.9251006,139.485793
12465,Katsuyama,Japan,Fukui,1859765,36.060945,136.5005841
12466,Kasukabe,Japan,Saitama,1859884,35.9751984,139.7523007
12467,Kasugai,Japan,Aichi,1859891,35.247611,136.9722236
12468,Kashiwazaki,Japan,Niigata,1859908,37.3718999,138.5589836
12469,Kashiwa,Japan,Chiba,1859924,35.8676124,139.9758505
12470,Kashima,Japan,Saga,1859941,33.1037238,130.098769
12471,Kashihara-shi,Japan,Nara,1859951,34.5094478,135.792626
12472,Kashihara,Japan,osaka,1859952,34.9614182,135.4147159
12473,Kaseda-shirakame,Japan,Kagoshima,1859964,31.41659799999999,130.3112926
12474,Kasaoka,Japan,Okayama,1859990,34.5071797,133.5074409
12475,Kasamatsucho,Japan,Gifu,1859998,35.3671997,136.763167
12476,Kariya,Japan,Aichi,1860034,34.9892245,137.0021069
12477,Karatsu,Japan,Saga,1860063,33.4501738,129.9681335
12478,Kanzakimachi-kanzaki,Japan,Saga,1860095,33.3107627,130.3730603
12479,Kanuma,Japan,Tochigi,1860098,36.56711050000001,139.7450127
12480,Kanoya,Japan,Kagoshima,1860112,31.3782921,130.8520774
12481,Kanonjicho,Japan,Kagawa,1860122,34.1284662,133.6628115
12482,Kannabecho-yahiro,Japan,Hiroshima,1860176,34.5646414,133.4167423
12483,Kanie,Japan,Aichi,1860191,35.1323305,136.7867455
12484,Kanekomachi,Japan,Gunma,1860211,36.4113792,138.9861674
12485,Kanda,Japan,Fukuoka,1860234,33.7759209,130.9805103
12486,Kanazawa,Japan,Ishikawa,1860243,36.56132540000001,136.6562051
12487,Kanaya,Japan,Shizuoka,1860256,34.8191087,138.1254993
12488,Kamojimacho-jogejima,Japan,Tokushima,1860321,34.0716318,134.3493568
12489,Kamogatacho-kamogata,Japan,Okayama,1860335,34.5414989,133.5894821
12490,Kamo,Japan,Niigata,1860341,37.6662746,139.0401981
12491,Kamirenjaku,Japan,Tokyo,1860437,35.6958419,139.5530816
12492,Kaminokawa,Japan,Tochigi,1860458,36.4392955,139.9098843
12493,Kamiichi,Japan,Toyama,1860563,36.698414,137.3623804
12494,Kameyama,Japan,Mie,1860626,34.8557554,136.4516451
12495,Kameoka,Japan,Kyoto,1860635,35.0134082,135.5736091
12496,Kameda-honcho,Japan,Niigata,1860648,37.8696912,139.1078982
12497,Kamakura,Japan,Kanagawa,1860672,35.3192254,139.5466868
12498,Kakogawacho-honmachi,Japan,Hyogo,1860704,34.7569503,134.8411775
12499,Kakegawa,Japan,Shizuoka,1860728,34.7687667,137.998168
12500,Kakamigahara,Japan,Gifu,1860735,35.3988691,136.8482643
12501,Kashima-shi,Japan,Ibaraki,1860748,35.9657558,140.6448128
12502,Kajiki,Japan,Kagoshima,1860750,31.7414367,130.6659377
12503,Kaizuka,Japan,osaka,1860765,34.4375837,135.358517
12504,Kainan,Japan,Wakayama,1860785,34.1553356,135.2092226
12505,Kagoshima,Japan,Kagoshima,1860827,31.5965535,130.5571158
12506,Kadoma,Japan,osaka,1860871,34.7395423,135.5868904
12507,Izumo,Japan,Shimane,1861084,35.3670351,132.7546815
12508,Izumiotsu,Japan,osaka,1861095,34.5042794,135.4104641
12509,Izumi,Japan,osaka,1861107,34.483527,135.4235574
12510,Izumi,Japan,Kagoshima,1861108,32.0906442,130.3532057
12511,Iwatsuki,Japan,Saitama,1861164,35.9498608,139.6941913
12512,Iwata,Japan,Shizuoka,1861171,34.71790350000001,137.8515133
12513,Iwakura,Japan,Aichi,1861207,35.2795027,136.8714306
12514,Iwakuni,Japan,Yamaguchi,1861212,34.1665616,132.2188479
12515,Iwai,Japan,Ibaraki,1861223,36.0463635,139.8871872
12516,Iwade,Japan,Wakayama,1861244,34.2562947,135.3113232
12517,Itsukaichi,Japan,Tokyo,1861261,35.727874,139.2222589
12518,Itoman,Japan,Okinawa,1861280,26.1235841,127.6658145
12519,Itoigawa,Japan,Niigata,1861285,37.0390282,137.8626522
12520,Ito,Japan,Shizuoka,1861290,34.9656705,139.1019363
12521,Itami,Japan,Hyogo,1861310,34.78430609999999,135.4009473
12522,Ishiki,Japan,Aichi,1861383,34.9747115,137.1360379
12523,Ishikawa,Japan,Okinawa,1861393,26.4309871,127.8284755
12524,Ishii,Japan,Tokushima,1861400,34.0741734,134.4406902
12525,Ishige,Japan,Ibaraki,1861406,36.0234937,139.993617
12526,Ishigaki,Japan,Okinawa,1861416,24.3406606,124.1555804
12527,Isesaki,Japan,Gunma,1861436,36.3113639,139.1967703
12528,Isehara,Japan,Kanagawa,1861449,35.4029686,139.3149729
12529,Ise,Japan,Mie,1861450,34.48751439999999,136.7093359
12530,Isawa,Japan,Yamanashi,1861454,35.6576837,138.6352531
12531,Isahaya,Japan,Nagasaki,1861464,32.8434379,130.0530952
12532,Inuyama,Japan,Gifu,1861528,35.3883547,136.9391775
12533,Ino,Japan,Kochi,1861584,33.5487544,133.4277729
12534,Innoshima,Japan,Hiroshima,1861586,34.3218045,133.1650285
12535,Inazawa,Japan,Aichi,1861602,35.2481321,136.780202
12536,Ina,Japan,Nagano,1861641,35.827481,137.9540801
12537,Imaricho-ko,Japan,Saga,1861677,33.2645856,129.880269
12538,Imaichi,Japan,Tochigi,1861699,36.7239518,139.6893225
12539,Ikoma,Japan,Nara,1861749,34.6919598,135.7005364
12540,Ikeda,Japan,osaka,1861795,34.8217051,135.4284439
12541,Ikedacho,Japan,Tokushima,1861799,34.0290908,133.8064524
12542,Ijuin,Japan,Kagoshima,1861825,31.430716,130.90561
12543,Iizuka,Japan,Fukuoka,1861835,33.6465658,130.6911502
12544,Iiyama,Japan,Nagano,1861838,36.8517445,138.3654952
12545,Iida,Japan,Nagano,1861864,35.5149777,137.8214466
12546,Ichinomiya,Japan,Aichi,1861949,35.3038899,136.8029326
12547,Ibusuki,Japan,Kagoshima,1862010,31.2527702,130.6330314
12548,Ibaraki,Japan,osaka,1862033,34.8163384,135.5685046
12549,Ibara,Japan,Okayama,1862034,34.5976718,133.4636814
12550,Hotaka,Japan,Nagano,1862098,36.3400071,137.8830829
12551,Honjo,Japan,Saitama,1862198,36.2435676,139.190393
12552,Hondo,Japan,Kumamoto,1862230,32.4562266,130.1805889
12553,Hofu,Japan,Yamaguchi,1862302,34.0517516,131.56269
12554,Hitoyoshi,Japan,Kumamoto,1862352,32.2100405,130.7625544
12555,Hita,Japan,Oita,1862373,33.3213327,130.9409659
12556,Hisai-motomachi,Japan,Mie,1862389,34.6689265,136.4689157
12557,Hiroshima,Japan,Hiroshima,1862415,34.3852029,132.4552927
12558,Hiratsuka,Japan,Kanagawa,1862462,35.3351103,139.3494762
12559,Hiratacho,Japan,Shimane,1862471,35.4325708,132.8228298
12560,Hirara,Japan,Okinawa,1862505,24.8051928,125.2789544
12561,Hirakata,Japan,osaka,1862540,34.8143402,135.6506583
12562,Hirado,Japan,Nagasaki,1862555,33.3680618,129.5536713
12563,Hino,Japan,Tokyo,1862599,35.6713374,139.3949261
12564,Hino,Japan,Shiga,1862601,35.0180025,136.2460433
12565,Himimachi,Japan,Toyama,1862612,36.8565732,136.9878807
12566,Himeji,Japan,Hyogo,1862627,34.815149,134.6853528
12567,Hikone,Japan,Shiga,1862636,35.274461,136.2596226
12568,Hiji,Japan,Oita,1862689,33.369443,131.5323869
12569,Hekinan,Japan,Aichi,1862912,34.8848038,136.9933755
12570,Hayama,Japan,Kanagawa,1862992,35.2720886,139.5861995
12571,Hatsukaichi,Japan,Hiroshima,1863018,34.3482578,132.331622
12572,Hatogaya-honcho,Japan,Saitama,1863023,35.8325673,139.7424494
12573,Hashimoto,Japan,Wakayama,1863082,34.3150526,135.6052962
12574,Hanyu,Japan,Saitama,1863173,36.1726261,139.5484646
12575,Hanno,Japan,Saitama,1863183,35.8557309,139.327734
12576,Handa,Japan,Aichi,1863209,34.8917179,136.937961
12577,Hamanoichi,Japan,Kagoshima,1863279,31.6023975,130.5659398
12578,Hamamatsu,Japan,Shizuoka,1863289,34.7108344,137.7261258
12579,Hamakita,Japan,Shizuoka,1863293,34.7916111,137.7832787
12580,Hamada,Japan,Shimane,1863310,34.8993025,132.0797833
12581,Hakui,Japan,Ishikawa,1863341,36.8935987,136.7789962
12582,Haibara-akanedai,Japan,Nara,1863398,34.5326867,135.9521803
12583,Hagi,Japan,Yamaguchi,1863418,34.4081155,131.3990849
12584,Katsuren-haebaru,Japan,Okinawa,1863426,26.3344066,127.8828671
12585,Hadano,Japan,Kanagawa,1863431,35.3747359,139.2199432
12586,Hachioji,Japan,Tokyo,1863440,35.6663394,139.3158056
12587,omihachiman,Japan,Shiga,1863451,35.1283386,136.0979067
12588,Gyoda,Japan,Saitama,1863482,36.1389486,139.4556427
12589,Gushikawa,Japan,Okinawa,1863495,26.3577675,127.8691991
12590,Gotsucho,Japan,Shimane,1863521,35.0114175,132.2209303
12591,Gotenba,Japan,Shizuoka,1863528,35.3087148,138.93487
12592,Gosen,Japan,Niigata,1863540,37.7445357,139.1825675
12593,Gose,Japan,Nara,1863541,34.4633305,135.7402402
12594,Gojo,Japan,Nara,1863592,34.3520304,135.6936323
12595,Godo,Japan,Gifu,1863611,35.4173682,136.6084587
12596,Gobo,Japan,Wakayama,1863614,33.8914924,135.1523464
12597,Ginowan,Japan,Okinawa,1863627,26.2815751,127.7786343
12598,Gifu-shi,Japan,Gifu,1863641,35.4232984,136.7606537
12599,Gamagori,Japan,Aichi,1863693,34.8265004,137.2195158
12600,Futtsu,Japan,Chiba,1863713,35.3041204,139.8571048
12601,Honcho,Japan,Chiba,1863905,35.6100622,140.126314
12602,Fukuyama,Japan,Hiroshima,1863917,34.4858993,133.3623127
12603,Fukuroi,Japan,Shizuoka,1863945,34.7501735,137.9246792
12604,Fukura,Japan,Hyogo,1863953,34.2568635,134.715179
12605,Fukuoka,Japan,Fukuoka,1863967,33.5903547,130.4017155
12606,Fukumitsu,Japan,Toyama,1863973,36.55916000000001,136.873169
12607,Nishifukuma,Japan,Fukuoka,1863978,33.764338,130.4720973
12608,Fukui-shi,Japan,Fukui,1863985,36.0640669,136.2194938
12609,Fukuecho,Japan,Nagasaki,1863997,32.698974,128.8464149
12610,Fukuchiyama,Japan,Kyoto,1864009,35.2967,135.1265628
12611,Fukiage-fujimi,Japan,Saitama,1864025,36.0979376,139.4522594
12612,Fukayacho,Japan,Saitama,1864031,36.1952744,139.2791584
12613,Fujisawa,Japan,Kanagawa,1864092,35.3391703,139.490036
12614,Fujioka,Japan,Tochigi,1864098,36.255616,139.645558
12615,Fujioka,Japan,Gunma,1864099,36.2584765,139.0744386
12616,Fujinomiya,Japan,Shizuoka,1864105,35.2220541,138.6216428
12617,Fujieda,Japan,Shizuoka,1864132,34.8673673,138.2574584
12618,Fuji,Japan,Shizuoka,1864134,35.1613985,138.6762728
12619,Fuchucho,Japan,Hiroshima,1864155,34.3924864,132.5045797
12620,Enzan,Japan,Yamanashi,1864180,35.705404,138.734381
12621,Daitocho,Japan,osaka,1864416,34.7226934,135.5286653
12622,Chofugaoka,Japan,Tokyo,1864518,35.6553472,139.5476397
12623,Chiryu,Japan,Aichi,1864549,35.0012715,137.0507493
12624,Chino,Japan,Nagano,1864557,35.9955706,138.158893
12625,Chikushino-shi,Japan,Fukuoka,1864572,33.4963423,130.5156572
12626,Chigasaki,Japan,Kanagawa,1864624,35.3338429,139.4036386
12627,Chichibu,Japan,Saitama,1864637,35.9916885,139.0854418
12628,Chatan,Japan,Okinawa,1864652,26.3201191,127.7637755
12629,Beppu,Japan,Oita,1864750,33.28462,131.4912138
12630,Ayabe,Japan,Kyoto,1864873,35.2989163,135.258812
12631,Atami,Japan,Shizuoka,1864945,35.0962764,139.0717047
12632,Ashiya,Japan,Hyogo,1864985,34.7269496,135.3041623
12633,Ashikaga,Japan,Tochigi,1865005,36.3401513,139.4496984
12634,Arai,Japan,Niigata,1865207,37.00144,138.2261816
12635,Annaka,Japan,Gunma,1865290,36.3263676,138.8873239
12636,Anjo,Japan,Aichi,1865294,34.9586414,137.080297
12637,Anan,Japan,Tokushima,1865309,33.9218284,134.6595268
12638,Amagi,Japan,Fukuoka,1865375,33.4234125,130.665573
12639,Amagasaki,Japan,Hyogo,1865387,34.7337339,135.4063757
12640,Akune,Japan,Kagoshima,1865401,32.0144696,130.1927734
12641,Kariya,Japan,Hyogo,1865412,34.5155998,134.9871044
12642,Aki,Japan,Kochi,1865449,33.5025463,133.9071661
12643,Aioi,Japan,Hyogo,1865661,34.8036006,134.4680664
12644,Ageoshimo,Japan,Saitama,1865714,35.9773805,139.5932055
12645,Okinawa,Japan,Okinawa,1894616,26.3344266,127.8055832
12646,Kushima,Japan,Miyazaki,1895695,31.4645389,131.2283032
12647,Hikari,Japan,Yamaguchi,1896348,33.9619132,131.9422817
12648,Nagato,Japan,Yamaguchi,1899102,34.3709562,131.1821947
12649,Hasuda,Japan,Saitama,1907123,35.9943071,139.6621058
12650,Kamifukuoka,Japan,Saitama,1907125,35.8756247,139.5142064
12651,Sayama,Japan,Saitama,1907146,35.8529421,139.4122129
12652,Fussa,Japan,Tokyo,1907148,35.7384505,139.3269322
12653,Asaka,Japan,Saitama,1907299,35.7972524,139.5939165
12654,Wako,Japan,Saitama,1907300,35.7812079,139.6057934
12655,Shimotoda,Japan,Saitama,1907301,35.8165383,139.6831829
12656,Kimitsu,Japan,Chiba,1907307,35.3304502,139.9026768
12657,Miura,Japan,Kanagawa,1907309,35.1441706,139.6207704
12658,Wakayama,Japan,Wakayama,1926004,34.2305113,135.1708083
12659,Iyo,Japan,Ehime,1926006,33.7574293,132.7037292
12660,Uwajima,Japan,Ehime,1926020,33.2233404,132.5605575
12661,Saijo,Japan,Ehime,1926054,33.9195105,133.1811697
12662,ozu,Japan,Ehime,1926055,33.5061936,132.5445085
12663,Matsuyama,Japan,Ehime,1926099,33.8391574,132.7655752
12664,Masaki-cho,Japan,Ehime,1926101,33.7874398,132.7113752
12665,Kawanoecho,Japan,Ehime,1926116,33.9807605,133.5491949
12666,Hojo,Japan,Ehime,1926142,33.9772277,132.774328
12667,Yuzawa,Japan,Akita,2110460,39.1643041,140.4956629
12668,Yotsukaido,Japan,Chiba,2110480,35.6698162,140.1679247
12669,Yonezawa,Japan,Yamagata,2110498,37.9222401,140.1167811
12670,Yokotemachi,Japan,Akita,2110506,39.3116594,140.5586252
12671,Yokaichiba,Japan,Chiba,2110518,35.7055251,140.5585737
12672,Yanagawamachi-saiwaicho,Japan,Fukushima,2110538,37.8505169,140.6001539
12673,Yamoto,Japan,Miyagi,2110541,38.4208043,141.2106391
12674,Yamagata,Japan,Yamagata,2110556,38.2554388,140.3396016
12675,Yamada,Japan,Iwate,2110560,39.467662,141.9489501
12676,Yachimata,Japan,Chiba,2110579,35.665917,140.3179516
12677,Watari,Japan,Miyagi,2110586,38.0374595,140.8525812
12678,Wakuya,Japan,Miyagi,2110596,38.5396458,141.1280752
12679,Ushiku,Japan,Ibaraki,2110629,35.9793751,140.1495237
12680,Tsukuba,Japan,Ibaraki,2110683,36.0834857,140.0766423
12681,Toride,Japan,Ibaraki,2110729,35.9114415,140.0504684
12682,Tono,Japan,Iwate,2110735,39.3278378,141.5333031
12683,Tomobe,Japan,Ibaraki,2110743,36.3563198,140.143716
12684,Tomiya,Japan,Miyagi,2110744,38.3998148,140.8954076
12685,Togane,Japan,Chiba,2110774,35.5599438,140.3660922
12686,Tendo,Japan,Yamagata,2110793,38.3622648,140.3778858
12687,Takahata,Japan,Yamagata,2110891,38.0027363,140.1891602
12688,Takahagi,Japan,Ibaraki,2110893,36.719147,140.7166877
12689,Sukagawa,Japan,Fukushima,2110959,37.2869551,140.3725271
12690,Shizukuishi,Japan,Iwate,2110994,39.6962875,140.9757756
12691,Shisui,Japan,Chiba,2111008,35.7248237,140.2695466
12692,Shiroishi,Japan,Miyagi,2111016,38.0024779,140.6198605
12693,Shiroi,Japan,Chiba,2111018,35.7912332,140.0558773
12694,Shiogama,Japan,Miyagi,2111049,38.3143623,141.0220272
12695,Shinjo,Japan,Yamagata,2111065,38.7650154,140.3016084
12696,Sendai,Japan,Miyagi,2111149,38.268215,140.8693558
12697,Sawara,Japan,Chiba,2111173,35.89506799999999,140.493557
12698,Sakura,Japan,Chiba,2111220,35.7234861,140.2239639
12699,Sagae,Japan,Yamagata,2111248,38.38096350000001,140.2759667
12700,Ryugasaki,Japan,Ibaraki,2111258,35.911594,140.1822645
12701,Rifu,Japan,Miyagi,2111277,38.3301895,140.9757222
12702,otsuchi,Japan,Iwate,2111310,39.358231,141.8994216
12703,otawara,Japan,Tochigi,2111325,36.871484,140.0174187
12704,omiya,Japan,Ibaraki,2111425,36.5425766,140.41089
12705,Omigawa,Japan,Chiba,2111429,35.8550956,140.6058841
12706,omagari,Japan,Akita,2111435,39.4442088,140.4986178
12707,Okunoya,Japan,Ibaraki,2111441,36.2868678,140.4216923
12708,okawara,Japan,Miyagi,2111461,38.0494926,140.730721
12709,ohara,Japan,Chiba,2111495,35.2502753,140.390325
12710,ofunato,Japan,Iwate,2111530,39.0819011,141.70853
12711,Obanazawa,Japan,Yamagata,2111559,38.6006216,140.405691
12712,oarai,Japan,Ibaraki,2111567,36.3134425,140.5749744
12713,oami,Japan,Chiba,2111568,35.521708,140.32096
12714,Nihommatsu,Japan,Fukushima,2111656,37.5848581,140.4311291
12715,Naruto,Japan,Chiba,2111677,35.6036445,140.4085044
12716,Narita,Japan,Chiba,2111684,35.7766076,140.3187806
12717,Namie,Japan,Fukushima,2111704,37.483333,141.0
12718,Naka,Japan,Ibaraki,2111749,36.4574688,140.486854
12719,Nagai,Japan,Yamagata,2111781,38.1074936,140.0405238
12720,Motomiya,Japan,Fukushima,2111824,37.5131313,140.3938904
12721,Motegi,Japan,Tochigi,2111827,36.5321204,140.1875648
12722,Moriya,Japan,Ibaraki,2111831,35.9514207,139.9753912
12723,Morioka,Japan,Iwate,2111834,39.702053,141.1544838
12724,Mooka,Japan,Tochigi,2111836,36.4404189,140.0134416
12725,Mobara,Japan,Chiba,2111855,35.4285439,140.2880265
12726,Mizusawa,Japan,Iwate,2111859,40.2436602,141.6510229
12727,Miyako,Japan,Iwate,2111884,39.6414202,141.9571394
12728,Mito,Japan,Ibaraki,2111901,36.3665027,140.4709965
12729,Miharu,Japan,Fukushima,2111943,37.4410476,140.4925685
12730,Matsushima,Japan,Miyagi,2111964,38.380128,141.0672439
12731,Mashiko,Japan,Tochigi,2111999,36.4673531,140.093378
12732,Marumori,Japan,Miyagi,2112008,37.9114293,140.7655281
12733,Makabe,Japan,Ibaraki,2112019,36.2784313,140.1005395
12734,Kuroiso,Japan,Tochigi,2112077,36.9832371,140.0373221
12735,Koriyama,Japan,Fukushima,2112141,37.400529,140.3597421
12736,Kogota,Japan,Miyagi,2112182,38.540644,141.064362
12737,Kitakami,Japan,Iwate,2112227,39.2867646,141.1131909
12738,Kitaibaraki,Japan,Ibaraki,2112232,36.8019113,140.7509791
12739,Kamogawa,Japan,Chiba,2112297,35.1139867,140.0987111
12740,Katsuura,Japan,Chiba,2112309,35.152283,140.3209324
12741,Katsuta,Japan,Ibaraki,2112312,36.39468,140.524589
12742,Katori-shi,Japan,Chiba,2112319,35.89773539999999,140.4992682
12743,Kasama,Japan,Ibaraki,2112343,36.3453,140.3043542
12744,Karasuyama,Japan,Tochigi,2112354,36.650446,140.155054
12745,Kaminoyama,Japan,Yamagata,2112409,38.149562,140.2678268
12746,Kamaishi,Japan,Iwate,2112444,39.2758183,141.8856772
12747,Kakuda,Japan,Miyagi,2112455,37.9770628,140.7819901
12748,Iwase,Japan,Ibaraki,2112521,36.3618654,140.1073887
12749,Iwanuma,Japan,Miyagi,2112527,38.1042919,140.8701381
12750,Iwaki,Japan,Fukushima,2112539,37.0504195,140.8876817
12751,Itako,Japan,Ibaraki,2112555,35.9471227,140.5553722
12752,Ishioka,Japan,Ibaraki,2112571,36.1909565,140.2885698
12753,Ishinomaki,Japan,Miyagi,2112576,38.4344802,141.3029167
12754,Ishikawa,Japan,Fukushima,2112583,37.1570775,140.4467761
12755,Inawashiro,Japan,Fukushima,2112615,37.5577684,140.1047605
12756,Ichinoseki,Japan,Iwate,2112656,38.9346819,141.1268004
12757,Ichihara,Japan,Chiba,2112664,35.4978377,140.1156648
12758,Hobaramachi,Japan,Fukushima,2112692,37.8199686,140.5540146
12759,Hitachi,Japan,Ibaraki,2112708,36.5991289,140.6504583
12760,Higashine,Japan,Yamagata,2112758,38.4313543,140.3910903
12762,Hanamaki,Japan,Iwate,2112823,39.3885784,141.1166454
12763,Furukawa,Japan,Miyagi,2112899,38.5871116,140.9484303
12764,Funehikimachi-funehiki,Japan,Fukushima,2112903,37.4410745,140.5750557
12765,Funaishikawa,Japan,Ibaraki,2112913,36.4707823,140.5615795
12766,Fukushima,Japan,Fukushima,2112923,37.7608337,140.4747281
12767,Fujishiro,Japan,Ibaraki,2112940,35.9231975,140.1085656
12768,Edosaki,Japan,Ibaraki,2112963,35.9581394,140.3212196
12769,Daigo,Japan,Ibaraki,2112989,36.7680962,140.3552657
12770,Chiba,Japan,Chiba,2113015,35.6072668,140.1062907
12771,Asahi,Japan,Chiba,2113077,35.7204338,140.6464692
12772,Ami,Japan,Ibaraki,2113115,36.0307951,140.2147859
12773,Akita,Japan,Akita,2113126,39.7199218,140.1035697
12774,Abiko,Japan,Chiba,2113164,35.8641227,140.0282255
12775,Akitashi,Japan,Akita,2113719,39.7199218,140.1035697
12776,Bihoro,Japan,Hokkaido,2127383,43.8237818,144.1070416
12777,Wakkanai,Japan,Hokkaido,2127515,45.4156641,141.6730822
12778,Tomakomai,Japan,Hokkaido,2127733,42.6343021,141.6053721
12779,Tobetsu,Japan,Hokkaido,2127802,43.2236829,141.5170721
12780,Mutsu,Japan,Aomori,2127878,41.2927457,141.1834755
12781,Takikawa,Japan,Hokkaido,2127896,43.5577948,141.9101895
12782,Takanosu,Japan,Akita,2127910,40.2151861,140.3739254
12783,Sunagawa,Japan,Hokkaido,2127955,43.49484289999999,141.903465
12784,Shizunai-furukawacho,Japan,Hokkaido,2128025,42.3332013,142.3680716
12785,Shiraoi,Japan,Hokkaido,2128072,42.5512597,141.3559547
12787,Shibetsu,Japan,Hokkaido,2128206,44.1787338,142.4004035
12788,Sapporo,Japan,Hokkaido,2128295,43.0620958,141.3543763
12789,Rumoi,Japan,Hokkaido,2128382,43.9409868,141.6370118
12790,Otofuke,Japan,Hokkaido,2128558,42.9941431,143.1979595
12791,Otaru,Japan,Hokkaido,2128574,43.1907173,140.9946622
12792,odate,Japan,Akita,2128787,40.271405,140.5642854
12793,Obihiro,Japan,Hokkaido,2128815,42.9238989,143.1961031
12794,Noshiro,Japan,Akita,2128867,40.21188970000001,140.0269711
12795,Nemuro,Japan,Hokkaido,2128975,43.3300759,145.5827903
12796,Nayoro,Japan,Hokkaido,2128983,44.35593799999999,142.4631673
12797,Nanae,Japan,Hokkaido,2129003,41.8957197,140.6942803
12798,Namioka,Japan,Aomori,2129005,40.7105457,140.5811414
12799,Muroran,Japan,Hokkaido,2129101,42.3152306,140.9737991
12800,Mombetsu,Japan,Hokkaido,2129163,44.3564842,143.3545033
12801,Misawa,Japan,Aomori,2129211,40.6831337,141.3689761
12802,Yoichi,Japan,Hokkaido,2129218,43.1952319,140.7834674
12803,Makubetsu,Japan,Hokkaido,2129324,42.9085896,143.3560966
12804,Kushiro,Japan,Hokkaido,2129376,42.9848542,144.3813556
12805,Kuroishi,Japan,Aomori,2129395,40.6426318,140.5946454
12807,Kitami,Japan,Hokkaido,2129537,43.8040314,143.8958758
12808,Kamiiso,Japan,Hokkaido,2129766,41.73471259999999,140.4453796
12809,Iwanai,Japan,Hokkaido,2129868,42.97978510000001,140.5147528
12810,Iwamizawa,Japan,Hokkaido,2129870,43.1962055,141.7759332
12811,Ishikari,Japan,Hokkaido,2129909,43.1713843,141.3155196
12812,Ichinohe,Japan,Iwate,2129961,40.213011,141.2954747
12813,Kitahiroshima,Japan,Hokkaido,2130054,42.9855157,141.5629871
12814,Hirosaki,Japan,Aomori,2130057,40.6031243,140.4639223
12815,Hanawa,Japan,Akita,2130146,40.2157778,140.7884362
12816,Hakodate,Japan,Hokkaido,2130188,41.7687933,140.7288103
12817,Hachinohe,Japan,Aomori,2130203,40.5122839,141.4883986
12818,Fukagawa,Japan,Hokkaido,2130332,43.7232603,142.0535381
12819,Ebetsu,Japan,Hokkaido,2130404,43.1037445,141.5362468
12820,Date,Japan,Hokkaido,2130421,42.4718507,140.8646785
12821,Chitose,Japan,Hokkaido,2130452,42.8209577,141.650876
12822,Bibai,Japan,Hokkaido,2130534,43.3328813,141.8537848
12823,Ashibetsu,Japan,Hokkaido,2130612,43.51816609999999,142.1894364
12824,Asahikawa,Japan,Hokkaido,2130629,43.7706355,142.364819
12825,Aomorishi,Japan,Aomori,2130658,40.822072,140.7473648
12826,Abashiri,Japan,Hokkaido,2130741,44.0206319,144.2733983
12827,Goshogawara,Japan,Aomori,2131612,40.80800199999999,140.44009
12828,Aso,Japan,Kumamoto,6324583,32.9519535,131.1209554
12829,Nanto-shi,Japan,Toyama,6694821,36.5575131,136.8753356
12830,Kawage,Japan,Mie,6696932,35.0230086,136.6738654
12831,Neyagawa,Japan,osaka,6697563,34.7660929,135.6280998
12832,Hitachi-Naka,Japan,Ibaraki,6822096,36.3966149,140.5346762
12833,Inashiki,Japan,Ibaraki,6822108,35.97294,140.3036454
12834,onojo,Japan,Fukuoka,6822146,33.536307,130.478641
12835,Minokamo,Japan,Gifu,6822217,35.4402422,137.0156644
12836,Gujo,Japan,Gifu,6822219,35.7485771,136.9643543
12837,Joetsu,Japan,Niigata,6825489,37.1478477,138.2360802
12838,Saitama,Japan,Saitama,6940394,35.8617292,139.6454822
12839,Higashimurayama-shi,Japan,Tokyo,7279570,35.7545968,139.4684892
12840,Fujikawaguchiko,Japan,Yamanashi,7281819,35.4973137,138.7550838
12841,Dazaifu,Japan,Fukuoka,7422816,33.5127991,130.5239064
12842,Kamigyo-ku,Japan,Kyoto,8125829,35.0296181,135.756627
12843,Buzen,Japan,Fukuoka,8198709,33.6115108,131.130051
12844,Sendai,Japan,Miyagi,8555918,38.268215,140.8693558
